[{"OBJECT_NAME":"TEN-KOH","OBJECT_ID":"2018-084G","EPOCH":"2026-03-09T23:23:52.653408","MEAN_MOTION":15.02465351,"ECCENTRICITY":0.0011972,"INCLINATION":98.0798,"RA_OF_ASC_NODE":257.1735,"ARG_OF_PERICENTER":91.8355,"MEAN_ANOMALY":268.424,"EPHEMERIS_TYPE":0,"CLASSIFICATION_TYPE":"U","NORAD_CAT_ID":43677,"ELEMENT_SET_NO":999,"REV_AT_EPOCH":40126,"BSTAR":0.00025918134,"MEAN_MOTION_DOT":3.377e-5,"MEAN_MOTION_DDOT":0},{"OBJECT_NAME":"STARLINK-5550","OBJECT_ID":"2023-058AW","EPOCH":"2026-03-09T22:46:53.883264","MEAN_MOTION":15.01262692,"ECCENTRICITY":0.00019883,"INCLINATION":97.6042,"RA_OF_ASC_NODE":70.534,"ARG_OF_PERICENTER":85.6098,"MEAN_ANOMALY":274.5353,"EPHEMERIS_TYPE":0,"CLASSIFICATION_TYPE":"U","NORAD_CAT_ID":56361,"ELEMENT_SET_NO":999,"REV_AT_EPOCH":15817,"BSTAR":-6.9277307e-5,"MEAN_MOTION_DOT":-9.48e-6,"MEAN_MOTION_DDOT":0}]
